[
    {
        "Altitude(m)": 610399.5614070266,
        "Argument of Periapsis(deg)": 0.0,
        "Eccentricity": 0.0,
        "Inclination(deg)": 60.0,
        "Latitude(deg)": 52.11142479444011,
        "Longitude(deg)": 42.58418284205305,
        "Mean Anomaly(deg)": 65.4545,
        "RAAN(deg)": 95.0,
        "Satellite Name": "Test1 422",
        "Satellite Number": 422,
        "Semi-Major Axis(m)": 6980739.136638005,
        "Time(s)": 0
    },
    {
        "Altitude(m)": 610481.7128587293,
        "Argument of Periapsis(deg)": 0.00010418945913296404,
        "Eccentricity": 0.0,
        "Inclination(deg)": 60.0,
        "Latitude(deg)": 52.471028345403774,
        "Longitude(deg)": 43.36631905741462,
        "Mean Anomaly(deg)": 66.07460614546181,
        "RAAN(deg)": 94.99957995086027,
        "Satellite Name": "Test1 422",
        "Satellite Number": 422,
        "Semi-Major Axis(m)": 6980739.136638005,
        "Time(s)": 10
    },
    {
        "Altitude(m)": 610562.4031209521,
        "Argument of Periapsis(deg)": 0.0002083789182659281,
        "Eccentricity": 0.0,
        "Inclination(deg)": 60.0,
        "Latitude(deg)": 52.82478449792336,
        "Longitude(deg)": 44.161868374373704,
        "Mean Anomaly(deg)": 66.69471229092365,
        "RAAN(deg)": 94.99915990172052,
        "Satellite Name": "Test1 422",
        "Satellite Number": 422,
        "Semi-Major Axis(m)": 6980739.136638005,
        "Time(s)": 20
    },
    {
        "Altitude(m)": 610641.5847276086,
        "Argument of Periapsis(deg)": 0.00031256837739889213,
        "Eccentricity": 0.0,
        "Inclination(deg)": 60.0,
        "Latitude(deg)": 53.17252372409829,
        "Longitude(deg)": 44.97099530812074,
        "Mean Anomaly(deg)": 67.3148184363855,
        "RAAN(deg)": 94.99873985258078,
        "Satellite Name": "Test1 422",
        "Satellite Number": 422,
        "Semi-Major Axis(m)": 6980739.136638005,
        "Time(s)": 30
    },
    {
        "Altitude(m)": 610719.2111690723,
        "Argument of Periapsis(deg)": 0.0004167578365318562,
        "Eccentricity": 0.0,
        "Inclination(deg)": 60.0,
        "Latitude(deg)": 53.514073020043774,
        "Longitude(deg)": 45.79385276138327,
        "Mean Anomaly(deg)": 67.93492458184733,
        "RAAN(deg)": 94.99831980344103,
        "Satellite Name": "Test1 422",
        "Satellite Number": 422,
        "Semi-Major Axis(m)": 6980739.136638005,
        "Time(s)": 40
    },
    {
        "Altitude(m)": 610795.2369144905,
        "Argument of Periapsis(deg)": 0.0005209472956648203,
        "Eccentricity": 0.0,
        "Inclination(deg)": 60.0,
        "Latitude(deg)": 53.849256027851915,
        "Longitude(deg)": 46.63057961021583,
        "Mean Anomaly(deg)": 68.55503072730914,
        "RAAN(deg)": 94.99789975430129,
        "Satellite Name": "Test1 422",
        "Satellite Number": 422,
        "Semi-Major Axis(m)": 6980739.136638005,
        "Time(s)": 50
    },
    {
        "Altitude(m)": 610869.6174336356,
        "Argument of Periapsis(deg)": 0.0006251367547977843,
        "Eccentricity": 0.0,
        "Inclination(deg)": 60.0,
        "Latitude(deg)": 54.17789318188009,
        "Longitude(deg)": 47.48129973701894,
        "Mean Anomaly(deg)": 69.17513687277096,
        "RAAN(deg)": 94.99747970516155,
        "Satellite Name": "Test1 422",
        "Satellite Number": 422,
        "Semi-Major Axis(m)": 6980739.136638005,
        "Time(s)": 60
    },
    {
        "Altitude(m)": 610942.309218212,
        "Argument of Periapsis(deg)": 0.0007293262139307483,
        "Eccentricity": 0.0,
        "Inclination(deg)": 60.0,
        "Latitude(deg)": 54.49980188102861,
        "Longitude(deg)": 48.34612100221609,
        "Mean Anomaly(deg)": 69.79524301823281,
        "RAAN(deg)": 94.9970596560218,
        "Satellite Name": "Test1 422",
        "Satellite Number": 422,
        "Semi-Major Axis(m)": 6980739.136638005,
        "Time(s)": 70
    },
    {
        "Altitude(m)": 611013.269802697,
        "Argument of Periapsis(deg)": 0.0008335156730637124,
        "Eccentricity": 0.0,
        "Inclination(deg)": 60.0,
        "Latitude(deg)": 54.81479668863001,
        "Longitude(deg)": 49.22513264732946,
        "Mean Anomaly(deg)": 70.41534916369464,
        "RAAN(deg)": 94.99663960688207,
        "Satellite Name": "Test1 422",
        "Satellite Number": 422,
        "Semi-Major Axis(m)": 6980739.136638005,
        "Time(s)": 80
    },
    {
        "Altitude(m)": 611082.4577846208,
        "Argument of Periapsis(deg)": 0.0009377051321966765,
        "Eccentricity": 0.0,
        "Inclination(deg)": 60.0,
        "Latitude(deg)": 55.122689561513496,
        "Longitude(deg)": 50.118404162251636,
        "Mean Anomaly(deg)": 71.03545530915649,
        "RAAN(deg)": 94.99621955774232,
        "Satellite Name": "Test1 422",
        "Satellite Number": 422,
        "Semi-Major Axis(m)": 6980739.136638005,
        "Time(s)": 90
    },
    {
        "Altitude(m)": 611149.8328443681,
        "Argument of Periapsis(deg)": 0.0010418945913296407,
        "Eccentricity": 0.0,
        "Inclination(deg)": 60.0,
        "Latitude(deg)": 55.4232901097023,
        "Longitude(deg)": 51.025984112425995,
        "Mean Anomaly(deg)": 71.65556145461828,
        "RAAN(deg)": 94.99579950860257,
        "Satellite Name": "Test1 422",
        "Satellite Number": 422,
        "Semi-Major Axis(m)": 6980739.136638005,
        "Time(s)": 100
    },
    {
        "Altitude(m)": 611215.3557644151,
        "Argument of Periapsis(deg)": 0.0011460840504626045,
        "Eccentricity": 0.0,
        "Inclination(deg)": 60.0,
        "Latitude(deg)": 55.71640588807098,
        "Longitude(deg)": 51.94789742328652,
        "Mean Anomaly(deg)": 72.27566760008013,
        "RAAN(deg)": 94.99537945946284,
        "Satellite Name": "Test1 422",
        "Satellite Number": 422,
        "Semi-Major Axis(m)": 6980739.136638005,
        "Time(s)": 110
    },
    {
        "Altitude(m)": 611278.9884480231,
        "Argument of Periapsis(deg)": 0.0012502735095955685,
        "Eccentricity": 0.0,
        "Inclination(deg)": 60.0,
        "Latitude(deg)": 56.001842721124824,
        "Longitude(deg)": 52.884144159655186,
        "Mean Anomaly(deg)": 72.89577374554196,
        "RAAN(deg)": 94.99495941032309,
        "Satellite Name": "Test1 422",
        "Satellite Number": 422,
        "Semi-Major Axis(m)": 6980739.136638005,
        "Time(s)": 120
    },
    {
        "Altitude(m)": 611340.6939373926,
        "Argument of Periapsis(deg)": 0.0013544629687285324,
        "Eccentricity": 0.0,
        "Inclination(deg)": 60.0,
        "Latitude(deg)": 56.279405061847285,
        "Longitude(deg)": 53.83469830094413,
        "Mean Anomaly(deg)": 73.5158798910038,
        "RAAN(deg)": 94.99453936118334,
        "Satellite Name": "Test1 422",
        "Satellite Number": 422,
        "Semi-Major Axis(m)": 6980739.136638005,
        "Time(s)": 130
    },
    {
        "Altitude(m)": 611400.4364312892,
        "Argument of Periapsis(deg)": 0.0014586524278614966,
        "Eccentricity": 0.0,
        "Inclination(deg)": 60.0,
        "Latitude(deg)": 56.54889638530718,
        "Longitude(deg)": 54.799505014808766,
        "Mean Anomaly(deg)": 74.13598603646562,
        "RAAN(deg)": 94.99411931204361,
        "Satellite Name": "Test1 422",
        "Satellite Number": 422,
        "Semi-Major Axis(m)": 6980739.136638005,
        "Time(s)": 140
    },
    {
        "Altitude(m)": 611458.1813020337,
        "Argument of Periapsis(deg)": 0.0015628418869944607,
        "Eccentricity": 0.0,
        "Inclination(deg)": 60.0,
        "Latitude(deg)": 56.81011961742518,
        "Longitude(deg)": 55.77847947232174,
        "Mean Anomaly(deg)": 74.75609218192743,
        "RAAN(deg)": 94.99369926290386,
        "Satellite Name": "Test1 422",
        "Satellite Number": 422,
        "Semi-Major Axis(m)": 6980739.136638005,
        "Time(s)": 150
    },
    {
        "Altitude(m)": 611513.8951119926,
        "Argument of Periapsis(deg)": 0.0016670313461274247,
        "Eccentricity": 0.0,
        "Inclination(deg)": 60.0,
        "Latitude(deg)": 57.06287759894863,
        "Longitude(deg)": 56.77150571084718,
        "Mean Anomaly(deg)": 75.37619832738928,
        "RAAN(deg)": 94.99327921376413,
        "Satellite Name": "Test1 422",
        "Satellite Number": 422,
        "Semi-Major Axis(m)": 6980739.136638005,
        "Time(s)": 160
    },
    {
        "Altitude(m)": 611567.5456294611,
        "Argument of Periapsis(deg)": 0.0017712208052603888,
        "Eccentricity": 0.0,
        "Inclination(deg)": 60.0,
        "Latitude(deg)": 57.306973584293694,
        "Longitude(deg)": 57.7784340524332,
        "Mean Anomaly(deg)": 75.99630447285111,
        "RAAN(deg)": 94.99285916462438,
        "Satellite Name": "Test1 422",
        "Satellite Number": 422,
        "Semi-Major Axis(m)": 6980739.136638005,
        "Time(s)": 170
    },
    {
        "Altitude(m)": 611619.1018439652,
        "Argument of Periapsis(deg)": 0.001875410264393353,
        "Eccentricity": 0.0,
        "Inclination(deg)": 60.0,
        "Latitude(deg)": 57.54221177448575,
        "Longitude(deg)": 58.799080125654456,
        "Mean Anomaly(deg)": 76.61641061831295,
        "RAAN(deg)": 94.99243911548464,
        "Satellite Name": "Test1 422",
        "Satellite Number": 422,
        "Semi-Major Axis(m)": 6980739.136638005,
        "Time(s)": 180
    },
    {
        "Altitude(m)": 611668.5339809542,
        "Argument of Periapsis(deg)": 0.0019795997235263173,
        "Eccentricity": 0.0,
        "Inclination(deg)": 60.0,
        "Latitude(deg)": 57.76839788294626,
        "Longitude(deg)": 59.833224001475756,
        "Mean Anomaly(deg)": 77.23651676377476,
        "RAAN(deg)": 94.9920190663449,
        "Satellite Name": "Test1 422",
        "Satellite Number": 422,
        "Semi-Major Axis(m)": 6980739.136638005,
        "Time(s)": 190
    }
]